     2.100          NAVIGATION                              RINEX VERSION / TYPE
fic2rin                                 11/13/2011 00:07:32 PGM / RUN BY / DATE
                                                            END OF HEADER
32 11 11 12 18  0  0.0 -.360636971891D-03 -.602540239925D-11  .000000000000D+00
     .830000000000D+02  .974375000000D+02  .426017745349D-08  .279544563669D+01
     .505894422531D-05  .121323394123D-01  .112988054752D-04  .515353807068D+04
     .583200000000D+06 -.167638063431D-07 -.274575599443D+01  .232830643654D-06
     .953803803814D+00  .154937500000D+03 -.688954563414D+00 -.767317676147D-08
    -.291083553370D-09  .100000000000D+01  .166100000000D+04  .000000000000D+00
     .340000000000D+01  .000000000000D+00 -.279396772385D-08  .830000000000D+02
     .576006000000D+06  .400000000000D+01
32 11 11 12 17 59 44.0 -.360642094165D-03 -.602540239925D-11  .000000000000D+00
     .000000000000D+00  .974375000000D+02  .426017745349D-08  .279311146312D+01
     .505894422531D-05  .121323391795D-01  .112988054752D-04  .515353808022D+04
     .583184000000D+06 -.167638063431D-07 -.274575586862D+01  .232830643654D-06
     .953803805277D+00  .154937500000D+03 -.688954380550D+00 -.767317676147D-08
    -.291083553370D-09  .100000000000D+01  .166100000000D+04  .000000000000D+00
     .240000000000D+01  .000000000000D+00 -.279396772385D-08  .000000000000D+00
     .576876000000D+06  .400000000000D+01
27 11 11 12 17 59 44.0  .324957538396D-03  .397903932026D-11  .000000000000D+00
     .700000000000D+01 -.877187500000D+02  .405016870578D-08 -.184194524354D+01
    -.396743416786D-05  .218015924329D-01  .348500907421D-05  .515359543800D+04
     .583184000000D+06 -.134110450745D-06 -.779717592516D+00  .486150383949D-06
     .981632530169D+00  .322437500000D+03 -.118177486462D+01 -.798318967475D-08
    -.192865176466D-09  .100000000000D+01  .166100000000D+04  .000000000000D+00
     .240000000000D+01  .630000000000D+02 -.419095158577D-08  .700000000000D+01
     .577626000000D+06  .400000000000D+01
 3 11 11 12 17 59 44.0  .794140156358D-03  .511590769747D-11  .000000000000D+00
     .100000000000D+01  .179062500000D+02  .540522514932D-08 -.257451955487D+01
     .705942511559D-06  .149180912413D-01  .702962279320D-05  .515368106270D+04
     .583184000000D+06  .270083546638D-06  .122519093775D+01 -.502914190292D-07
     .929493094078D+00  .223375000000D+03  .115500929496D+01 -.813569602725D-08
     .699314843556D-09  .100000000000D+01  .166100000000D+04  .000000000000D+00
     .240000000000D+01  .000000000000D+00 -.465661287308D-08  .100000000000D+01
     .578736000000D+06  .400000000000D+01
 9 11 11 12 17 59 44.0  .117920339108D-03  .250111042988D-11  .000000000000D+00
     .400000000000D+01 -.956250000000D+02  .402052461385D-08  .136408013589D+01
    -.529550015926D-05  .171613675775D-01  .322423875332D-05  .515365231705D+04
     .583184000000D+06 -.894069671631D-07 -.753364245376D+00 -.435858964920D-06
     .984132152460D+00  .331375000000D+03  .160107364301D+01 -.814569644381D-08
    -.201794119821D-09  .100000000000D+01  .166100000000D+04  .000000000000D+00
     .240000000000D+01  .000000000000D+00 -.558793544769D-08  .400000000000D+01
     .579486000000D+06  .400000000000D+01
 7 11 11 12 17 59 44.0  .369925983250D-04  .216004991671D-11  .000000000000D+00
     .410000000000D+02 -.907812500000D+02  .421624705218D-08  .202410318873D+01
    -.468455255032D-05  .508676667232D-02  .314041972160D-05  .515363052750D+04
     .583184000000D+06 -.279396772385D-07 -.726173276695D+00  .353902578354D-07
     .975321633238D+00  .327937500000D+03 -.302633773235D+01 -.808676541767D-08
    -.272511351192D-09  .100000000000D+01  .166100000000D+04  .000000000000D+00
     .240000000000D+01  .000000000000D+00 -.111758708954D-07  .410000000000D+02
     .580686000000D+06  .400000000000D+01
 3 11 11 12 19 59 44.0  .794177409261D-03  .511590769747D-11  .000000000000D+00
     .160000000000D+02  .223125000000D+02  .539093883996D-08 -.152437421009D+01
     .140070915222D-05  .149184045149D-01  .690855085850D-05  .515367985344D+04
     .590384000000D+06  .344589352608D-06  .122513268875D+01  .189989805222D-06
     .929497633513D+00  .224625000000D+03  .115504663301D+01 -.827284459718D-08
     .631812031793D-09  .100000000000D+01  .166100000000D+04  .000000000000D+00
     .240000000000D+01  .000000000000D+00 -.465661287308D-08  .160000000000D+02
     .583206000000D+06  .400000000000D+01
 7 11 11 12 19 59 44.0  .370079651475D-04  .216004991671D-11  .000000000000D+00
     .420000000000D+02 -.970312500000D+02  .419267464173D-08  .307419053905D+01
    -.504031777382D-05  .508576526772D-02  .283122062683D-05  .515363270760D+04
     .590384000000D+06 -.428408384323D-07 -.726231502297D+00  .316649675369D-07
     .975319677317D+00  .333593750000D+03 -.302622063892D+01 -.808819404860D-08
    -.269654089318D-09  .100000000000D+01  .166100000000D+04  .000000000000D+00
     .240000000000D+01  .000000000000D+00 -.111758708954D-07  .420000000000D+02
     .583206000000D+06  .400000000000D+01
 9 11 11 12 19 59 44.0  .117938499898D-03  .250111042988D-11  .000000000000D+00
     .500000000000D+01 -.924375000000D+02  .386408952627D-08  .241421715813D+01
    -.475719571114D-05  .171611885307D-01  .262632966042D-05  .515365400887D+04
     .590384000000D+06  .201165676117D-06 -.753420136161D+00 -.428408384323D-07
     .984132218291D+00  .337312500000D+03  .160112505580D+01 -.770282085341D-08
    -.319299014371D-09  .100000000000D+01  .166100000000D+04  .000000000000D+00
     .240000000000D+01  .000000000000D+00 -.558793544769D-08  .500000000000D+01
     .583206000000D+06  .400000000000D+01
27 11 11 12 19 59 44.0  .324985943735D-03  .397903932026D-11  .000000000000D+00
     .800000000000D+01 -.790625000000D+02  .408409869053D-08 -.791673196892D+00
    -.407174229622D-05  .218020438915D-01  .376813113689D-05  .515359751511D+04
     .590384000000D+06 -.320374965668D-06 -.779778098808D+00  .260770320892D-07
     .981630196815D+00  .322218750000D+03 -.118182094068D+01 -.837427739370D-08
    -.450018745087D-10  .100000000000D+01  .166100000000D+04  .000000000000D+00
     .240000000000D+01  .630000000000D+02 -.419095158577D-08  .800000000000D+01
     .583206000000D+06  .400000000000D+01
32 11 11 12 19 59 44.0 -.360685400665D-03 -.602540239925D-11  .000000000000D+00
     .820000000000D+02  .104812500000D+03  .427732102473D-08 -.243978880963D+01
     .540167093277D-05  .121330705006D-01  .112466514111D-04  .515353684616D+04
     .590384000000D+06 -.160187482834D-06 -.274581111426D+01  .188127160072D-06
     .953801865448D+00  .157437500000D+03 -.688976466224D+00 -.767460539241D-08
    -.253581991279D-09  .100000000000D+01  .166100000000D+04  .000000000000D+00
     .240000000000D+01  .000000000000D+00 -.279396772385D-08  .820000000000D+02
     .583206000000D+06  .400000000000D+01
 1 11 11 12 20  0  0.0  .897813588381D-04  .218278728426D-10  .000000000000D+00
     .530000000000D+02 -.183437500000D+02  .487734601818D-08  .250024543678D+01
    -.989064574242D-06  .487236073241D-03  .702776014805D-05  .515365637016D+04
     .590400000000D+06 -.558793544769D-08  .239578394853D+01 -.260770320892D-07
     .960095767660D+00  .245437500000D+03  .134243417533D+01 -.802926302246D-08
    -.408588447920D-09  .100000000000D+01  .166100000000D+04  .000000000000D+00
     .240000000000D+01  .000000000000D+00  .791624188423D-08  .530000000000D+02
     .583206000000D+06  .400000000000D+01
 2 11 11 12 20  0  0.0  .365319661796D-03  .181898940355D-11  .000000000000D+00
     .680000000000D+02 -.280625000000D+02  .539343894410D-08 -.167523758142D+01
    -.147148966789D-05  .106178387068D-01  .644102692604D-05  .515359143257D+04
     .590400000000D+06  .100582838058D-06  .238631863888D+01 -.135973095894D-06
     .938672842120D+00  .242500000000D+03 -.291471304378D+01 -.833070415012D-08
    -.255010622216D-09  .100000000000D+01  .166100000000D+04  .000000000000D+00
     .240000000000D+01  .000000000000D+00 -.176951289177D-07  .680000000000D+02
     .583206000000D+06  .400000000000D+01
 4 11 11 12 20  0  0.0  .203214585781D-05  .112549969344D-10  .000000000000D+00
     .760000000000D+02 -.247187500000D+02  .548237121991D-08  .149336064085D+01
    -.118091702461D-05  .997094938066D-02  .693090260029D-05  .515373216820D+04
     .590400000000D+06 -.206753611565D-06  .240346714016D+01  .100582838058D-06
     .937763511260D+00  .238312500000D+03  .796608519268D+00 -.845785230350D-08
    -.462519265784D-09  .100000000000D+01  .166100000000D+04  .000000000000D+00
     .240000000000D+01  .000000000000D+00 -.651925802231D-08  .760000000000D+02
     .583206000000D+06  .400000000000D+01
 5 11 11 12 20  0  0.0 -.244351569563D-03 -.500222085975D-11  .000000000000D+00
     .420000000000D+02  .686562500000D+02  .450161608181D-08  .284169344085D+00
     .357069075108D-05  .260984292254D-02  .104401260614D-04  .515379903030D+04
     .590400000000D+06  .167638063431D-07 -.283475733662D+01  .223517417908D-07
     .953121219405D+00  .171093750000D+03  .199211447488D+00 -.791390107432D-08
    -.298226708054D-09  .100000000000D+01  .166100000000D+04  .000000000000D+00
     .240000000000D+01  .000000000000D+00 -.102445483208D-07  .420000000000D+02
     .583206000000D+06  .400000000000D+01
 6 11 11 12 20  0  0.0  .149244442582D-05  .568434188608D-11  .000000000000D+00
     .850000000000D+02  .161562500000D+02  .539486757503D-08  .439180028194D+00
     .791624188423D-06  .670905492734D-02  .681914389133D-05  .515369572639D+04
     .590400000000D+06  .596046447754D-07  .130018939632D+01 -.931322574615D-07
     .936461176235D+00  .235625000000D+03 -.649431009534D+00 -.844070873226D-08
     .570380901511D-09  .100000000000D+01  .166100000000D+04  .000000000000D+00
     .240000000000D+01  .000000000000D+00 -.512227416039D-08  .850000000000D+02
     .583206000000D+06  .400000000000D+01
